{"type": "FeatureCollection", "features": [ {"type": "Feature", "properties": {"norad_id": 32230, "name": "FENGYUN 1C DEB", "group": "fengyun-1c-debris", "lat": -43.08392470351157, "lon": 142.3526877418175, "alt_km": 740.1515378182576, "timestamp": "2025-12-10T11:33:53.671165+00:00", "meta": {"OBJECT_NAME": "FENGYUN 1C DEB", "OBJECT_ID": "1999-025CWC", "EPOCH": "2025-12-09T09:38:00.553056", "MEAN_MOTION": 14.55976953, "ECCENTRICITY": 0.0050751, "INCLINATION": 98.8713, "RA_OF_ASC_NODE": 132.8053, "ARG_OF_PERICENTER": 99.6578, "MEAN_ANOMALY": 316.9422, "EPHEMERIS_TYPE": 0, "CLASSIFICATION_TYPE": "U", "NORAD_CAT_ID": 32230, "ELEMENT_SET_NO": 999, "REV_AT_EPOCH": 60621, "BSTAR": 0.0042979317, "MEAN_MOTION_DOT": 0.00019231, "MEAN_MOTION_DDOT": 0}, "tle": {"line1": "1 32230U 99025CWC 25343.40139529  .00019231  00000+0  42979-2 0  9993", "line2": "2 32230  98.8713 132.8053 0050751  99.6578 316.9422 14.55976953606218"}}, "geometry": {"type": "Point", "coordinates": [142.3526877418175, -43.08392470351157]}}, {"type": "Feature", "properties": {"norad_id": 32234, "name": "FENGYUN 1C DEB", "group": "fengyun-1c-debris", "lat": -46.909667311306926, "lon": 5.270489869870983, "alt_km": 961.7997600164344, "timestamp": "2025-12-10T11:33:53.671174+00:00", "meta": {"OBJECT_NAME": "FENGYUN 1C DEB", "OBJECT_ID": "1999-025CWG", "EPOCH": "2025-12-02T12:59:39.185664", "MEAN_MOTION": 13.9406659, "ECCENTRICITY": 0.0137699, "INCLINATION": 98.5292, "RA_OF_ASC_NODE": 187.1676, "ARG_OF_PERICENTER": 4.214, "MEAN_ANOMALY": 356.0148, "EPHEMERIS_TYPE": 0, "CLASSIFICATION_TYPE": "U", "NORAD_CAT_ID": 32234, "ELEMENT_SET_NO": 999, "REV_AT_EPOCH": 93067, "BSTAR": 0.0016148587, "MEAN_MOTION_DOT": 2.273e-05, "MEAN_MOTION_DDOT": 0}, "tle": {"line1": "1 32234U 99025CWG 25336.54142576  .00002273  00000+0  16149-2 0  9998", "line2": "2 32234  98.5292 187.1676 0137699   4.2140 356.0148 13.94066590930678"}}, "geometry": {"type": "Point", "coordinates": [5.270489869870983, -46.909667311306926]}}, {"type": "Feature", "properties": {"norad_id": 32241, "name": "FENGYUN 1C DEB", "group": "fengyun-1c-debris", "lat": -15.601947690405547, "lon": 16.4025663481766, "alt_km": 842.7033341558463, "timestamp": "2025-12-10T11:33:53.671185+00:00", "meta": {"OBJECT_NAME": "FENGYUN 1C DEB", "OBJECT_ID": "1999-025CWP", "EPOCH": "2025-12-09T22:11:36.394656", "MEAN_MOTION": 14.28705903, "ECCENTRICITY": 0.0146266, "INCLINATION": 99.0777, "RA_OF_ASC_NODE": 13.2641, "ARG_OF_PERICENTER": 231.588, "MEAN_ANOMALY": 127.2093, "EPHEMERIS_TYPE": 0, "CLASSIFICATION_TYPE": "U", "NORAD_CAT_ID": 32241, "ELEMENT_SET_NO": 999, "REV_AT_EPOCH": 93783, "BSTAR": 0.0020784, "MEAN_MOTION_DOT": 5.818e-05, "MEAN_MOTION_DDOT": 0}, "tle": {"line1": "1 32241U 99025CWP 25343.92472679  .00005818  00000+0  20784-2 0  9994", "line2": "2 32241  99.0777  13.2641 0146266 231.5880 127.2093 14.28705903937835"}}, "geometry": {"type": "Point", "coordinates": [16.4025663481766, -15.601947690405547]}}, {"type": "Feature", "properties": {"norad_id": 32243, "name": "FENGYUN 1C DEB", "group": "fengyun-1c-debris", "lat": 55.230284305190565, "lon": -158.60266563198087, "alt_km": 678.0241259942886, "timestamp": "2025-12-10T11:33:53.671195+00:00", "meta": {"OBJECT_NAME": "FENGYUN 1C DEB", "OBJECT_ID": "1999-025CWR", "EPOCH": "2025-12-10T00:43:44.499360", "MEAN_MOTION": 14.04566008, "ECCENTRICITY": 0.0269719, "INCLINATION": 98.2698, "RA_OF_ASC_NODE": 8.8927, "ARG_OF_PERICENTER": 131.1919, "MEAN_ANOMALY": 231.2851, "EPHEMERIS_TYPE": 0, "CLASSIFICATION_TYPE": "U", "NORAD_CAT_ID": 32243, "ELEMENT_SET_NO": 999, "REV_AT_EPOCH": 93550, "BSTAR": 0.002273, "MEAN_MOTION_DOT": 4.991e-05, "MEAN_MOTION_DDOT": 0}, "tle": {"line1": "1 32243U 99025CWR 25344.03037615  .00004991  00000+0  22730-2 0  9990", "line2": "2 32243  98.2698   8.8927 0269719 131.1919 231.2851 14.04566008935509"}}, "geometry": {"type": "Point", "coordinates": [-158.60266563198087, 55.230284305190565]}}, {"type": "Feature", "properties": {"norad_id": 32245, "name": "FENGYUN 1C DEB", "group": "fengyun-1c-debris", "lat": 13.869866814737989, "lon": 2.523600134428148, "alt_km": 708.685961911493, "timestamp": "2025-12-10T11:33:53.671205+00:00", "meta": {"OBJECT_NAME": "FENGYUN 1C DEB", "OBJECT_ID": "1999-025CWT", "EPOCH": "2025-12-08T06:47:00.083040", "MEAN_MOTION": 14.76843452, "ECCENTRICITY": 0.00978135, "INCLINATION": 98.6545, "RA_OF_ASC_NODE": 178.0112, "ARG_OF_PERICENTER": 355.9473, "MEAN_ANOMALY": 4.0932, "EPHEMERIS_TYPE": 0, "CLASSIFICATION_TYPE": "U", "NORAD_CAT_ID": 32245, "ELEMENT_SET_NO": 999, "REV_AT_EPOCH": 66040, "BSTAR": 0.0014541087, "MEAN_MOTION_DOT": 0.00011, "MEAN_MOTION_DDOT": 0}, "tle": {"line1": "1 32245U 99025CWT 25342.28263985  .00011000  00000+0  14541-2 0  9998", "line2": "2 32245  98.6545 178.0112 0097813 355.9473   4.0932 14.76843452660407"}}, "geometry": {"type": "Point", "coordinates": [2.523600134428148, 13.869866814737989]}}, {"type": "Feature", "properties": {"norad_id": 32304, "name": "FENGYUN 1C DEB", "group": "fengyun-1c-debris", "lat": 19.84476700983713, "lon": -64.64001546620133, "alt_km": 753.2420329469487, "timestamp": "2025-12-10T11:33:53.671216+00:00", "meta": {"OBJECT_NAME": "FENGYUN 1C DEB", "OBJECT_ID": "1999-025CWV", "EPOCH": "2025-12-03T02:19:20.087328", "MEAN_MOTION": 14.50391603, "ECCENTRICITY": 0.00495576, "INCLINATION": 99.3949, "RA_OF_ASC_NODE": 290.5539, "ARG_OF_PERICENTER": 255.7789, "MEAN_ANOMALY": 103.7894, "EPHEMERIS_TYPE": 0, "CLASSIFICATION_TYPE": "U", "NORAD_CAT_ID": 32304, "ELEMENT_SET_NO": 999, "REV_AT_EPOCH": 56133, "BSTAR": 0.0019806873, "MEAN_MOTION_DOT": 7.809e-05, "MEAN_MOTION_DDOT": 0}, "tle": {"line1": "1 32304U 99025CWV 25337.09676027  .00007809  00000+0  19807-2 0  9994", "line2": "2 32304  99.3949 290.5539 0049557 255.7789 103.7894 14.50391603561335"}}, "geometry": {"type": "Point", "coordinates": [-64.64001546620133, 19.84476700983713]}}, {"type": "Feature", "properties": {"norad_id": 32308, "name": "FENGYUN 1C DEB", "group": "fengyun-1c-debris", "lat": -70.73045106452459, "lon": 60.708717928673835, "alt_km": 941.8995589768338, "timestamp": "2025-12-10T11:33:53.671226+00:00", "meta": {"OBJECT_NAME": "FENGYUN 1C DEB", "OBJECT_ID": "1999-025CWZ", "EPOCH": "2025-12-06T13:56:17.681280", "MEAN_MOTION": 14.05453804, "ECCENTRICITY": 0.01091821, "INCLINATION": 97.7755, "RA_OF_ASC_NODE": 34.3534, "ARG_OF_PERICENTER": 78.3987, "MEAN_ANOMALY": 282.9416, "EPHEMERIS_TYPE": 0, "CLASSIFICATION_TYPE": "U", "NORAD_CAT_ID": 32308, "ELEMENT_SET_NO": 999, "REV_AT_EPOCH": 65325, "BSTAR": 0.0028488037, "MEAN_MOTION_DOT": 4.847e-05, "MEAN_MOTION_DDOT": 0}, "tle": {"line1": "1 32308U 99025CWZ 25340.58076020  .00004847  00000+0  28488-2 0  9997", "line2": "2 32308  97.7755  34.3534 0109182  78.3987 282.9416 14.05453804653250"}}, "geometry": {"type": "Point", "coordinates": [60.708717928673835, -70.73045106452459]}}, {"type": "Feature", "properties": {"norad_id": 32314, "name": "FENGYUN 1C DEB", "group": "fengyun-1c-debris", "lat": -80.67715400133847, "lon": -162.5965448653658, "alt_km": 659.2515851791495, "timestamp": "2025-12-10T11:33:53.671236+00:00", "meta": {"OBJECT_NAME": "FENGYUN 1C DEB", "OBJECT_ID": "1999-025CXF", "EPOCH": "2025-12-09T13:16:04.145664", "MEAN_MOTION": 14.79358552, "ECCENTRICITY": 0.0149391, "INCLINATION": 98.8627, "RA_OF_ASC_NODE": 88.2704, "ARG_OF_PERICENTER": 167.7932, "MEAN_ANOMALY": 192.6962, "EPHEMERIS_TYPE": 0, "CLASSIFICATION_TYPE": "U", "NORAD_CAT_ID": 32314, "ELEMENT_SET_NO": 999, "REV_AT_EPOCH": 97383, "BSTAR": 0.0023179, "MEAN_MOTION_DOT": 0.00020854, "MEAN_MOTION_DDOT": 0}, "tle": {"line1": "1 32314U 99025CXF 25343.55282576  .00020854  00000+0  23179-2 0  9997", "line2": "2 32314  98.8627  88.2704 0149391 167.7932 192.6962 14.79358552973830"}}, "geometry": {"type": "Point", "coordinates": [-162.5965448653658, -80.67715400133847]}}, {"type": "Feature", "properties": {"norad_id": 32315, "name": "FENGYUN 1C DEB", "group": "fengyun-1c-debris", "lat": -13.844879544517992, "lon": -55.326611169701565, "alt_km": 967.4770464007925, "timestamp": "2025-12-10T11:33:53.671246+00:00", "meta": {"OBJECT_NAME": "FENGYUN 1C DEB", "OBJECT_ID": "1999-025CXG", "EPOCH": "2025-11-20T16:04:27.676128", "MEAN_MOTION": 13.66155502, "ECCENTRICITY": 0.02289149, "INCLINATION": 100.8052, "RA_OF_ASC_NODE": 105.2905, "ARG_OF_PERICENTER": 168.6, "MEAN_ANOMALY": 192.0449, "EPHEMERIS_TYPE": 0, "CLASSIFICATION_TYPE": "U", "NORAD_CAT_ID": 32315, "ELEMENT_SET_NO": 999, "REV_AT_EPOCH": 60787, "BSTAR": 0.00024184327, "MEAN_MOTION_DOT": 1.85e-06, "MEAN_MOTION_DDOT": 0}, "tle": {"line1": "1 32315U 99025CXG 25324.66976477  .00000185  00000+0  24184-3 0  9992", "line2": "2 32315 100.8052 105.2905 0228914 168.6000 192.0449 13.66155502607872"}}, "geometry": {"type": "Point", "coordinates": [-55.326611169701565, -13.844879544517992]}}, {"type": "Feature", "properties": {"norad_id": 32316, "name": "FENGYUN 1C DEB", "group": "fengyun-1c-debris", "lat": 38.93921504967462, "lon": -161.55647433467695, "alt_km": 734.8377344675973, "timestamp": "2025-12-10T11:33:53.671256+00:00", "meta": {"OBJECT_NAME": "FENGYUN 1C DEB", "OBJECT_ID": "1999-025CXH", "EPOCH": "2025-12-10T01:07:37.566048", "MEAN_MOTION": 14.51800849, "ECCENTRICITY": 0.0026502, "INCLINATION": 99.5292, "RA_OF_ASC_NODE": 10.15, "ARG_OF_PERICENTER": 337.5403, "MEAN_ANOMALY": 50.9364, "EPHEMERIS_TYPE": 0, "CLASSIFICATION_TYPE": "U", "NORAD_CAT_ID": 32316, "ELEMENT_SET_NO": 999, "REV_AT_EPOCH": 95738, "BSTAR": 0.0024437, "MEAN_MOTION_DOT": 9.832e-05, "MEAN_MOTION_DDOT": 0}, "tle": {"line1": "1 32316U 99025CXH 25344.04696257  .00009832  00000+0  24437-2 0  9990", "line2": "2 32316  99.5292  10.1500 0026502 337.5403  50.9364 14.51800849957389"}}, "geometry": {"type": "Point", "coordinates": [-161.55647433467695, 38.93921504967462]}}]}